{
  "type": "FeatureCollection",
  "features": [
    {
      "type": "Feature",
      "properties": {
        "norad_id": 30719,
        "name": "FENGYUN 1C DEB",
        "group": "fengyun-1c-debris",
        "lat": 61.753644382137765,
        "lon": 125.03648583881657,
        "alt_km": 689.197535578598,
        "timestamp": "2025-12-25T07:41:10.001421+00:00",
        "meta_object_name": "FENGYUN 1C DEB",
        "meta_object_id": "1999-025ASD",
        "meta_epoch": "2025-12-24T21:31:35.473440",
        "meta_mean_motion": 14.59620752,
        "meta_eccentricity": 0.00105709,
        "meta_inclination": 98.8878,
        "meta_ra_of_asc_node": 141.5173,
        "meta_arg_of_pericenter": 161.2857,
        "meta_mean_anomaly": 198.8732,
        "meta_ephemeris_type": 0,
        "meta_classification_type": "U",
        "meta_norad_cat_id": 30719,
        "meta_element_set_no": 999,
        "meta_rev_at_epoch": 97626,
        "meta_bstar": 0.0037677527,
        "meta_mean_motion_dot": 0.00017937,
        "meta_mean_motion_ddot": 0,
        "tle_line1": "1 30719U 99025ASD 25358.89693835  .00017937  00000+0  37678-2 0  9998",
        "tle_line2": "2 30719  98.8878 141.5173 0010570 161.2857 198.8732 14.59620752976264"
      },
      "geometry": {
        "type": "Point",
        "coordinates": [
          125.03648583881657,
          61.753644382137765
        ]
      }
    },
    {
      "type": "Feature",
      "properties": {
        "norad_id": 30720,
        "name": "FENGYUN 1C DEB",
        "group": "fengyun-1c-debris",
        "lat": 32.36334238073478,
        "lon": -0.9456655573423047,
        "alt_km": 811.6490309394876,
        "timestamp": "2025-12-25T07:41:10.001431+00:00",
        "meta_object_name": "FENGYUN 1C DEB",
        "meta_object_id": "1999-025ASE",
        "meta_epoch": "2025-12-24T06:37:06.603168",
        "meta_mean_motion": 14.29146216,
        "meta_eccentricity": 0.00323706,
        "meta_inclination": 99.0355,
        "meta_ra_of_asc_node": 172.1848,
        "meta_arg_of_pericenter": 295.2726,
        "meta_mean_anomaly": 241.253,
        "meta_ephemeris_type": 0,
        "meta_classification_type": "U",
        "meta_norad_cat_id": 30720,
        "meta_element_set_no": 999,
        "meta_rev_at_epoch": 97653,
        "meta_bstar": 0.00039369977,
        "meta_mean_motion_dot": 9.57e-06,
        "meta_mean_motion_ddot": 0,
        "tle_line1": "1 30720U 99025ASE 25358.27577087  .00000957  00000+0  39370-3 0  9998",
        "tle_line2": "2 30720  99.0355 172.1848 0032370 295.2726 241.2530 14.29146216976537"
      },
      "geometry": {
        "type": "Point",
        "coordinates": [
          -0.9456655573423047,
          32.36334238073478
        ]
      }
    },
    {
      "type": "Feature",
      "properties": {
        "norad_id": 30721,
        "name": "FENGYUN 1C DEB",
        "group": "fengyun-1c-debris",
        "lat": 13.208178688393795,
        "lon": -46.4273452530631,
        "alt_km": 668.5761327911578,
        "timestamp": "2025-12-25T07:41:10.001442+00:00",
        "meta_object_name": "FENGYUN 1C DEB",
        "meta_object_id": "1999-025ASF",
        "meta_epoch": "2025-12-24T15:11:54.112416",
        "meta_mean_motion": 14.72328927,
        "meta_eccentricity": 0.00284654,
        "meta_inclination": 98.7101,
        "meta_ra_of_asc_node": 130.7751,
        "meta_arg_of_pericenter": 302.8433,
        "meta_mean_anomaly": 184.7185,
        "meta_ephemeris_type": 0,
        "meta_classification_type": "U",
        "meta_norad_cat_id": 30721,
        "meta_element_set_no": 999,
        "meta_rev_at_epoch": 98017,
        "meta_bstar": 0.0035161946,
        "meta_mean_motion_dot": 0.0002239,
        "meta_mean_motion_ddot": 0,
        "tle_line1": "1 30721U 99025ASF 25358.63326519  .00022390  00000+0  35162-2 0  9990",
        "tle_line2": "2 30721  98.7101 130.7751 0028465 302.8433 184.7185 14.72328927980177"
      },
      "geometry": {
        "type": "Point",
        "coordinates": [
          -46.4273452530631,
          13.208178688393795
        ]
      }
    },
    {
      "type": "Feature",
      "properties": {
        "norad_id": 30723,
        "name": "FENGYUN 1C DEB",
        "group": "fengyun-1c-debris",
        "lat": 80.84860890110562,
        "lon": -19.12465907358976,
        "alt_km": 754.0966380266991,
        "timestamp": "2025-12-25T07:41:10.001452+00:00",
        "meta_object_name": "FENGYUN 1C DEB",
        "meta_object_id": "1999-025ASH",
        "meta_epoch": "2025-12-24T18:31:15.940128",
        "meta_mean_motion": 14.41495087,
        "meta_eccentricity": 0.001641,
        "meta_inclination": 98.8428,
        "meta_ra_of_asc_node": 85.2123,
        "meta_arg_of_pericenter": 227.2317,
        "meta_mean_anomaly": 260.2714,
        "meta_ephemeris_type": 0,
        "meta_classification_type": "U",
        "meta_norad_cat_id": 30723,
        "meta_element_set_no": 999,
        "meta_rev_at_epoch": 97544,
        "meta_bstar": 0.0022461084,
        "meta_mean_motion_dot": 7.264e-05,
        "meta_mean_motion_ddot": 0,
        "tle_line1": "1 30723U 99025ASH 25358.77171227  .00007264  00000+0  22461-2 0  9992",
        "tle_line2": "2 30723  98.8428  85.2123 0016410 227.2317 260.2714 14.41495087975447"
      },
      "geometry": {
        "type": "Point",
        "coordinates": [
          -19.12465907358976,
          80.84860890110562
        ]
      }
    },
    {
      "type": "Feature",
      "properties": {
        "norad_id": 30724,
        "name": "FENGYUN 1C DEB",
        "group": "fengyun-1c-debris",
        "lat": 14.665562567851333,
        "lon": 7.494488913148966,
        "alt_km": 733.3508238489867,
        "timestamp": "2025-12-25T07:41:10.001466+00:00",
        "meta_object_name": "FENGYUN 1C DEB",
        "meta_object_id": "1999-025ASJ",
        "meta_epoch": "2025-12-24T06:41:34.514880",
        "meta_mean_motion": 14.37077528,
        "meta_eccentricity": 0.00931299,
        "meta_inclination": 99.3156,
        "meta_ra_of_asc_node": 183.9059,
        "meta_arg_of_pericenter": 226.1302,
        "meta_mean_anomaly": 315.2443,
        "meta_ephemeris_type": 0,
        "meta_classification_type": "U",
        "meta_norad_cat_id": 30724,
        "meta_element_set_no": 999,
        "meta_rev_at_epoch": 98618,
        "meta_bstar": 0.00042213285,
        "meta_mean_motion_dot": 1.264e-05,
        "meta_mean_motion_ddot": 0,
        "tle_line1": "1 30724U 99025ASJ 25358.27887170  .00001264  00000+0  42213-3 0  9991",
        "tle_line2": "2 30724  99.3156 183.9059 0093129 226.1302 315.2443 14.37077528986184"
      },
      "geometry": {
        "type": "Point",
        "coordinates": [
          7.494488913148966,
          14.665562567851333
        ]
      }
    },
    {
      "type": "Feature",
      "properties": {
        "norad_id": 30725,
        "name": "FENGYUN 1C DEB",
        "group": "fengyun-1c-debris",
        "lat": 79.1927900770863,
        "lon": -55.536919138720734,
        "alt_km": 843.3072447265031,
        "timestamp": "2025-12-25T07:41:10.001476+00:00",
        "meta_object_name": "FENGYUN 1C DEB",
        "meta_object_id": "1999-025ASK",
        "meta_epoch": "2025-12-24T04:21:56.133216",
        "meta_mean_motion": 14.1612191,
        "meta_eccentricity": 0.00867729,
        "meta_inclination": 99.0064,
        "meta_ra_of_asc_node": 67.1271,
        "meta_arg_of_pericenter": 357.4716,
        "meta_mean_anomaly": 57.373,
        "meta_ephemeris_type": 0,
        "meta_classification_type": "U",
        "meta_norad_cat_id": 30725,
        "meta_element_set_no": 999,
        "meta_rev_at_epoch": 96510,
        "meta_bstar": 0.0011734113,
        "meta_mean_motion_dot": 2.361e-05,
        "meta_mean_motion_ddot": 0,
        "tle_line1": "1 30725U 99025ASK 25358.18189969  .00002361  00000+0  11734-2 0  9995",
        "tle_line2": "2 30725  99.0064  67.1271 0086772 357.4716  57.3730 14.16121910965106"
      },
      "geometry": {
        "type": "Point",
        "coordinates": [
          -55.536919138720734,
          79.1927900770863
        ]
      }
    },
    {
      "type": "Feature",
      "properties": {
        "norad_id": 30726,
        "name": "FENGYUN 1C DEB",
        "group": "fengyun-1c-debris",
        "lat": -1.5354093057225255,
        "lon": -178.82289853128313,
        "alt_km": 808.7228482106029,
        "timestamp": "2025-12-25T07:41:10.001486+00:00",
        "meta_object_name": "FENGYUN 1C DEB",
        "meta_object_id": "1999-025ASL",
        "meta_epoch": "2025-12-22T12:58:30.564192",
        "meta_mean_motion": 14.09336683,
        "meta_eccentricity": 0.00783825,
        "meta_inclination": 99.2678,
        "meta_ra_of_asc_node": 358.5691,
        "meta_arg_of_pericenter": 198.8017,
        "meta_mean_anomaly": 287.7405,
        "meta_ephemeris_type": 0,
        "meta_classification_type": "U",
        "meta_norad_cat_id": 30726,
        "meta_element_set_no": 999,
        "meta_rev_at_epoch": 96121,
        "meta_bstar": 0.0010169439,
        "meta_mean_motion_dot": 1.776e-05,
        "meta_mean_motion_ddot": 0,
        "tle_line1": "1 30726U 99025ASL 25356.54063153  .00001776  00000+0  10169-2 0  9990",
        "tle_line2": "2 30726  99.2678 358.5691 0078382 198.8017 287.7405 14.09336683961215"
      },
      "geometry": {
        "type": "Point",
        "coordinates": [
          -178.82289853128313,
          -1.5354093057225255
        ]
      }
    }
  ]
}